[{"OBJECT_NAME":"STARLINK-5868","OBJECT_ID":"2023-064AM","EPOCH":"2026-03-09T13:49:59.093760","MEAN_MOTION":14.98329823,"ECCENTRICITY":0.0003085,"INCLINATION":69.9998,"RA_OF_ASC_NODE":124.6886,"ARG_OF_PERICENTER":262.6495,"MEAN_ANOMALY":97.4314,"EPHEMERIS_TYPE":0,"CLASSIFICATION_TYPE":"U","NORAD_CAT_ID":56483,"ELEMENT_SET_NO":999,"REV_AT_EPOCH":15572,"BSTAR":-1.2666e-5,"MEAN_MOTION_DOT":-2.44e-6,"MEAN_MOTION_DDOT":0},{"OBJECT_NAME":"CZ-4B DEB","OBJECT_ID":"2013-057D","EPOCH":"2026-03-09T09:16:47.914752","MEAN_MOTION":14.5751129,"ECCENTRICITY":0.01795645,"INCLINATION":74.9688,"RA_OF_ASC_NODE":52.7396,"ARG_OF_PERICENTER":117.4056,"MEAN_ANOMALY":244.551,"EPHEMERIS_TYPE":0,"CLASSIFICATION_TYPE":"U","NORAD_CAT_ID":40531,"ELEMENT_SET_NO":999,"REV_AT_EPOCH":57727,"BSTAR":0.00073382472,"MEAN_MOTION_DOT":4.144e-5,"MEAN_MOTION_DDOT":0}]
